#dP2019  1 27  0  0  0.00000000      96 __u+U IGS08 FIT  IAC
## 2038      0.00000000   900.00000000 58510 0.0000000000000
+  101   C01C02C03C04C05C06C07C08C09C10C11C12C13C14C16C21C23
+        C29C30C32E01E02E03E04E05E07E08E09E11E12E13E14E15E18
+        E19E21E24E25E26E27E30E31E33E36G01G02G03G04G05G06G07
+        G08G09G10G11G12G13G14G15G16G17G18G19G20G21G22G23G24
+        G25G26G27G28G29G30G31G32J01J02J03R01R02R03R04R05R07
+        R08R09R10R11R13R14R15R17R18R19R20R21R22R23R24R26  0
++        12 12 12 12 12  8  8  8  8  8  8  8  8  8  8  0  0
++         0  0  0  5  4  4  5  4  4  4  4  4  4  5  5  5  5
++         5  4  4  4  4  5  4  5  6  6  3  3  3  6  3  3  3
++         3  3  3  3  3  3  3  3  3  3  3  3  3  3  3  3  3
++         3  3  3  3  3  3  3  3  9  9 10  5  5  5  5  5  5
++         5  5  5  5  5  5  5  5  5  5  5  5  5  5  5  9  0
%c M  cc GPS ccc cccc cccc cccc cccc ccccc ccccc ccccc ccccc
%c cc cc ccc ccc cccc cccc cccc cccc ccccc ccccc ccccc ccccc
%f  1.2500000  1.025000000  0.00000000000  0.000000000000000
%f  0.0000000  0.000000000  0.00000000000  0.000000000000000
%i    0    0    0    0      0      0      0      0         0
%i    0    0    0    0      0      0      0      0         0
/* INFORMATION & ANALYSIS CENTER (IAC)            FINAL DATA
/* S/V CLOCKS ARE ALIGNED TO GPS & GLONASS TIME RESPECTIVELY
/* USING THE BROADCAST EPHEMERIS                            
/* PCV:IGS14_2035 OL/AL:FES2004  NONE     YN ORB:CoN CLK:CoN
*  2019 01 27 20 15  0.00000000
PC01 -32248.932072  27148.994573   -231.612246    141.875548
PC02   4497.060011  41938.137694   1106.463947   -276.076327
PC03 -14824.239078  39510.078999    220.599656    -48.652530
PC04 -39615.372218  14375.315866     12.917374   -196.226955
PC05  21869.586884  36049.180360   1203.930260   -107.480382
PC06 -19518.340850  37595.630998    171.674112    327.823295
PC07  -8327.979793  28028.137917 -30121.607691    177.873996
PC08 -20144.807280  20258.276478  30982.431085     99.083513
PC09 -10927.394357  38564.869074 -13422.523344    484.327613
PC10   4866.168816  35228.054706 -22219.012931   -443.861590
PC11 -24249.932257  11307.436086  -7752.788651     23.030221
PC12 -10170.397988 -11576.118621 -23192.747064    377.041636
PC13  -6151.383446  23520.864102  34471.218096   -508.857137
PC14 -16284.508517  -5175.763433  22109.184978    838.480961
PC16 -17567.034887  38383.363721  -1922.683455   -122.529544
PC21      0.000000      0.000000      0.000000 999999.999999
PC23      0.000000      0.000000      0.000000 999999.999999
PC29      0.000000      0.000000      0.000000 999999.999999
PC30      0.000000      0.000000      0.000000 999999.999999
PC32      0.000000      0.000000      0.000000 999999.999999
PE01 -14741.813816   7895.790327 -24422.607207   -529.915344
PE02  14724.279045  -7918.189517  24427.802503     45.107014
PE03  16529.484131 -19303.699964 -15190.695128   -126.975627
PE04  -6186.751666  28847.563702  -2402.883938   -208.934839
PE05  17253.280877   1627.349310 -24000.366640    117.690476
PE07  -7881.221382 -21523.240934  18735.798519   -120.576656
PE08   5904.240416 -28905.169642   2482.808484   6415.016095
PE09   7966.189417  21405.486967 -18820.853963   6545.492914
PE11  14185.986735  12065.646240  23008.301041   5720.249807
PE12  -8258.555587  17667.345024  22284.498695   6037.597709
PE13 -14079.270575 -11989.302542 -23099.728800    382.250519
PE14 -15423.316530 -13797.468624 -25160.946373   6453.586369
PE15   7781.864202 -17618.760777 -22460.526863    921.761161
PE18   9986.648087  11103.354017  18002.724024   5574.219756
PE19 -16951.642929  17609.414185  16696.254139     -8.807260
PE21 -23708.836396 -10666.274692 -14151.706416   -516.582744
PE24  18665.723625  22663.485579  -3872.723548   6263.793693
PE25  23716.733101  10704.810601  14118.764248   1911.021841
PE26 -27763.377920    305.590422 -10241.554213   4970.928643
PE27 -18484.506658 -22694.505272   4386.594606    541.092665
PE30  -2713.274684 -21622.844024  20016.166920   5154.164955
PE31   2440.909306  21391.849151 -20307.536545    921.707653
PE33 -25149.610688  12972.698352   8705.432913    847.960038
PE36  27770.064936   -664.595445  10234.861123    754.593509
PG01 -15909.128471 -13424.421601 -16843.795508   -152.721289
PG02  -7957.574887  14672.295087  21223.847508   -124.430243
PG03 -13208.880568 -22644.828389   4458.773771    179.831822
PG04 -18998.184360   3450.718123  18245.968423     97.182101
PG05   -241.074858  22631.714664  13614.132001      0.939924
PG06 -20340.216849   8071.822788  15113.892146    288.192583
PG07 -25487.569168  -6843.386719   4959.137895     43.688996
PG08   1890.822933 -21155.381512 -15779.615134   -130.612171
PG09 -16153.145885  -2931.286189  20833.813824    466.382118
PG10  15019.364608  -3240.021149 -21629.229891    128.009560
PG11 -10325.932587 -13661.546415 -20805.445316   -669.189125
PG12  10254.607375  24503.839907   2085.785909    272.857827
PG13 -10336.479591  21900.723708 -10984.804250    -76.845826
PG14  18855.352250 -18219.134826  -3275.188098    -92.444382
PG15   2790.530542  20136.819792 -17144.689942   -330.441719
PG16   1639.262231 -22645.844242  13241.695081    -15.414610
PG17 -20172.054018  11976.426295 -11947.239434      1.327767
PG18  -5026.298345 -15593.102069 -21410.233371     20.053374
PG19 -19627.398048  17562.411745  -4131.350253   -358.823870
PG20  18911.977032   6137.282873 -17786.792119    521.588522
PG21  26074.738182   3965.458214   3397.080587   -261.235331
PG22 -10050.197505 -24391.819933  -3059.355650   -632.382929
PG23  -9566.624593 -13148.630316  21253.193184   -199.177183
PG24  11760.603906  14699.093926 -19006.251297    -61.371209
PG25  16303.641961  17314.097611  11895.931124   -712.030599
PG26   7750.016308 -16214.001816  19490.515409    108.271196
PG27  10489.961152 -23015.368108  -7688.991980    -56.637558
PG28 -14826.389789    555.559368 -21407.496125    763.123561
PG29  12902.510041   7341.243884  22002.251221    283.786934
PG30 -25818.167736    685.065419  -6558.391671    -42.883090
PG31  18950.404915  -8971.487869  16569.514513     62.774472
PG32  19604.751197 -14485.134562 -10383.274912   -255.103869
PJ01 -24905.741240  27145.327667  25539.931760   -202.878228
PJ02 -26351.494367  14650.264575 -25092.439938     -0.646018
PJ03 -24723.359257  33924.500708   1095.084815     -0.021265
PR01   9688.627946 -14711.014378 -18459.215967     38.576732
PR02   2011.177692 -25394.756475   -537.598300    351.444795
PR03  -6320.430701 -18961.493624  15854.897710     -9.299978
PR04 -10938.258567   -948.424970  23034.531365    292.938931
PR05  -9108.217173  16648.270955  17061.016878     20.899962
PR07   6440.867662  18694.226455 -16109.592817    -56.715965
PR08  10850.013594   1815.854395 -22968.024018     19.349110
PR09   6065.089875  15447.885467 -19336.063794     51.226964
PR10  18319.133597  16382.295265  -6713.668278     40.576532
PR11  21393.521415   7828.759198  11449.623714    -54.859262
PR13  -5281.015830 -14784.585085  20084.657548    -19.464374
PR14 -18467.374245 -16309.773955   6626.801869     35.374038
PR15 -21538.133855  -8512.690147 -10662.000675     99.516671
PR17  -8721.133263  -7412.161001 -22775.770195    199.687860
PR18 -21249.191021   3352.736503 -13733.247155     31.073474
PR19 -22477.077425  11723.326709   2835.615557    -61.667149
PR20  -9556.148822  13862.494432  19195.312552   -366.963739
PR21   9267.528876   7012.245588  22717.845410    -27.966591
PR22  22104.372636  -4739.038916  11701.424028    -64.282663
PR23  20219.113506 -13551.987350  -7624.851458    205.895716
PR24   7782.088434 -13776.055510 -20019.378862   -176.516451
PR26 -11127.845688  14359.699327  17911.401707     -5.628556
EOF
